start=new Date('2021-12-10T00:00:00.000Z').valueOf();
sats=[{"DECAY_DATE":null,"CENTER_NAME":"EARTH","TLE_LINE2":"2 45670  53.0545 158.9061 0002239  90.6699 269.4547 15.06395738 85288","REV_AT_EPOCH":"8528","SITE":"AFETR","TLE_LINE1":"1 45670U 20035P   21343.78242667  .00000496  00000-0  52214-4 0  9994","ECCENTRICITY":"0.00022390","ARG_OF_PERICENTER":"90.6699","EPHEMERIS_TYPE":"0","EPOCH":"2021-12-09T18:46:41.664288","PERIOD":"95.592","ELEMENT_SET_NO":"999","GP_ID":"191397282","CLASSIFICATION_TYPE":"U","BSTAR":"0.00005221400000","MEAN_MOTION_DOT":"0.00000496","OBJECT_ID":"2020-035P","LAUNCH_DATE":"2020-06-04","TIME_SYSTEM":"UTC","APOAPSIS":"548.777","PERIAPSIS":"545.676","OBJECT_NAME":"STARLINK-1453","INCLINATION":"53.0545","MEAN_ANOMALY":"269.4547","OBJECT_TYPE":"PAYLOAD","MEAN_ELEMENT_THEORY":"SGP4","SEMIMAJOR_AXIS":"6925.362","REF_FRAME":"TEME","RA_OF_ASC_NODE":"158.9061","MEAN_MOTION_DDOT":"0.0000000000000","NORAD_CAT_ID":"45670","FILE":"3236488","MEAN_MOTION":"15.06395738","RCS_SIZE":"LARGE","COUNTRY_CODE":"US"},{"BSTAR":"0.00004677200000","CLASSIFICATION_TYPE":"U","GP_ID":"191396030","ELEMENT_SET_NO":"999","TIME_SYSTEM":"UTC","LAUNCH_DATE":"2020-06-04","OBJECT_ID":"2020-035Q","MEAN_MOTION_DOT":"0.00000415","ARG_OF_PERICENTER":"87.5144","ECCENTRICITY":"0.00021410","SITE":"AFETR","TLE_LINE1":"1 45671U 20035Q   21343.72805804  .00000415  00000-0  46772-4 0  9990","TLE_LINE2":"2 45671  53.0533 189.1566 0002141  87.5144 272.6090 15.06387361 84959","CENTER_NAME":"EARTH","REV_AT_EPOCH":"8495","DECAY_DATE":null,"EPOCH":"2021-12-09T17:28:24.214656","PERIOD":"95.593","EPHEMERIS_TYPE":"0","FILE":"3236488","NORAD_CAT_ID":"45671","MEAN_MOTION_DDOT":"0.0000000000000","RA_OF_ASC_NODE":"189.1566","COUNTRY_CODE":"US","RCS_SIZE":"LARGE","MEAN_MOTION":"15.06387361","MEAN_ANOMALY":"272.6090","OBJECT_TYPE":"PAYLOAD","INCLINATION":"53.0533","OBJECT_NAME":"STARLINK-1454","PERIAPSIS":"545.770","APOAPSIS":"548.735","REF_FRAME":"TEME","SEMIMAJOR_AXIS":"6925.387","MEAN_ELEMENT_THEORY":"SGP4"},{"RCS_SIZE":"LARGE","MEAN_MOTION":"15.06387280","COUNTRY_CODE":"US","MEAN_MOTION_DDOT":"0.0000000000000","RA_OF_ASC_NODE":"159.4197","FILE":"3236488","NORAD_CAT_ID":"45672","SEMIMAJOR_AXIS":"6925.388","MEAN_ELEMENT_THEORY":"SGP4","REF_FRAME":"TEME","OBJECT_NAME":"STARLINK-1455","INCLINATION":"53.0534","APOAPSIS":"548.550","PERIAPSIS":"545.955","OBJECT_TYPE":"PAYLOAD","MEAN_ANOMALY":"271.8950","MEAN_MOTION_DOT":"-0.00001446","TIME_SYSTEM":"UTC","LAUNCH_DATE":"2020-06-04","OBJECT_ID":"2020-035R","BSTAR":"-0.00007823900000","CLASSIFICATION_TYPE":"U","GP_ID":"191396780","ELEMENT_SET_NO":"999","EPHEMERIS_TYPE":"0","PERIOD":"95.593","EPOCH":"2021-12-09T16:07:26.798016","TLE_LINE1":"1 45672U 20035R   21343.67183794 -.00001446  00000-0 -78239-4 0  9992","SITE":"AFETR","TLE_LINE2":"2 45672  53.0534 159.4197 0001873  88.2254 271.8950 15.06387280 85375","REV_AT_EPOCH":"8537","CENTER_NAME":"EARTH","DECAY_DATE":null,"ARG_OF_PERICENTER":"88.2254","ECCENTRICITY":"0.00018730"},{"ECCENTRICITY":"0.00019860","ARG_OF_PERICENTER":"74.0375","DECAY_DATE":null,"SITE":"AFETR","TLE_LINE1":"1 45673U 20035S   21343.74281010 -.00000817  00000-0 -35933-4 0  9996","TLE_LINE2":"2 45673  53.0522 189.0965 0001986  74.0375 286.0833 15.06376458 84975","CENTER_NAME":"EARTH","REV_AT_EPOCH":"8497","PERIOD":"95.594","EPOCH":"2021-12-09T17:49:38.792640","EPHEMERIS_TYPE":"0","GP_ID":"191397032","ELEMENT_SET_NO":"999","BSTAR":"-0.00003593300000","CLASSIFICATION_TYPE":"U","OBJECT_ID":"2020-035S","LAUNCH_DATE":"2020-06-04","TIME_SYSTEM":"UTC","MEAN_MOTION_DOT":"-0.00000817","OBJECT_TYPE":"PAYLOAD","MEAN_ANOMALY":"286.0833","APOAPSIS":"548.661","PERIAPSIS":"545.910","OBJECT_NAME":"STARLINK-1456","INCLINATION":"53.0522","REF_FRAME":"TEME","MEAN_ELEMENT_THEORY":"SGP4","SEMIMAJOR_AXIS":"6925.421","FILE":"3236488","NORAD_CAT_ID":"45673","MEAN_MOTION_DDOT":"0.0000000000000","RA_OF_ASC_NODE":"189.0965","COUNTRY_CODE":"US","MEAN_MOTION":"15.06376458","RCS_SIZE":"LARGE"},{"BSTAR":"0.00005322800000","CLASSIFICATION_TYPE":"U","GP_ID":"191397782","ELEMENT_SET_NO":"999","MEAN_MOTION_DOT":"0.00000511","TIME_SYSTEM":"UTC","OBJECT_ID":"2020-035T","LAUNCH_DATE":"2020-06-04","TLE_LINE1":"1 45674U 20035T   21343.68380648  .00000511  00000-0  53228-4 0  9993","SITE":"AFETR","TLE_LINE2":"2 45674  53.0533 189.3567 0002316  81.8713 278.2539 15.06401944 84930","CENTER_NAME":"EARTH","REV_AT_EPOCH":"8493","DECAY_DATE":null,"ARG_OF_PERICENTER":"81.8713","ECCENTRICITY":"0.00023160","EPHEMERIS_TYPE":"0","PERIOD":"95.592","EPOCH":"2021-12-09T16:24:40.879872","MEAN_MOTION_DDOT":"0.0000000000000","RA_OF_ASC_NODE":"189.3567","FILE":"3236488","NORAD_CAT_ID":"45674","MEAN_MOTION":"15.06401944","RCS_SIZE":"LARGE","COUNTRY_CODE":"US","OBJECT_NAME":"STARLINK-1457","INCLINATION":"53.0533","PERIAPSIS":"545.604","APOAPSIS":"548.812","MEAN_ANOMALY":"278.2539","OBJECT_TYPE":"PAYLOAD","SEMIMAJOR_AXIS":"6925.343","MEAN_ELEMENT_THEORY":"SGP4","REF_FRAME":"TEME"},{"MEAN_MOTION_DOT":"0.00000625","TIME_SYSTEM":"UTC","LAUNCH_DATE":"2020-06-04","OBJECT_ID":"2020-035U","CLASSIFICATION_TYPE":"U","BSTAR":"0.00006083800000","ELEMENT_SET_NO":"999","GP_ID":"191396530","EPHEMERIS_TYPE":"0","EPOCH":"2021-12-09T14:33:13.547520","PERIOD":"95.592","REV_AT_EPOCH":"8491","TLE_LINE2":"2 45675  53.0520 189.7073 0002322  76.6131 283.5117 15.06403879 84914","CENTER_NAME":"EARTH","TLE_LINE1":"1 45675U 20035U   21343.60640680  .00000625  00000-0  60838-4 0  9992","SITE":"AFETR","DECAY_DATE":null,"ARG_OF_PERICENTER":"76.6131","ECCENTRICITY":"0.00023220","RCS_SIZE":"LARGE","MEAN_MOTION":"15.06403879","COUNTRY_CODE":"US","RA_OF_ASC_NODE":"189.7073","MEAN_MOTION_DDOT":"0.0000000000000","FILE":"3236488","NORAD_CAT_ID":"45675","SEMIMAJOR_AXIS":"6925.337","MEAN_ELEMENT_THEORY":"SGP4","REF_FRAME":"TEME","INCLINATION":"53.0520","OBJECT_NAME":"STARLINK-1458","PERIAPSIS":"545.594","APOAPSIS":"548.810","OBJECT_TYPE":"PAYLOAD","MEAN_ANOMALY":"283.5117"},{"COUNTRY_CODE":"US","RCS_SIZE":"LARGE","MEAN_MOTION":"15.06390865","FILE":"3236488","NORAD_CAT_ID":"45676","RA_OF_ASC_NODE":"189.5294","MEAN_MOTION_DDOT":"0.0000000000000","REF_FRAME":"TEME","SEMIMAJOR_AXIS":"6925.377","MEAN_ELEMENT_THEORY":"SGP4","MEAN_ANOMALY":"283.6116","OBJECT_TYPE":"PAYLOAD","OBJECT_NAME":"STARLINK-1460","INCLINATION":"53.0525","PERIAPSIS":"545.825","APOAPSIS":"548.658","TIME_SYSTEM":"UTC","OBJECT_ID":"2020-035V","LAUNCH_DATE":"2020-06-04","MEAN_MOTION_DOT":"0.00000533","CLASSIFICATION_TYPE":"U","BSTAR":"0.00005471200000","ELEMENT_SET_NO":"999","GP_ID":"191396281","EPOCH":"2021-12-09T15:26:20.064192","PERIOD":"95.593","EPHEMERIS_TYPE":"0","ARG_OF_PERICENTER":"76.5101","ECCENTRICITY":"0.00020450","REV_AT_EPOCH":"8491","TLE_LINE2":"2 45676  53.0525 189.5294 0002045  76.5101 283.6116 15.06390865 84911","CENTER_NAME":"EARTH","TLE_LINE1":"1 45676U 20035V   21343.64328778  .00000533  00000-0  54712-4 0  9990","SITE":"AFETR","DECAY_DATE":null},{"ECCENTRICITY":"0.00020330","ARG_OF_PERICENTER":"80.4623","DECAY_DATE":null,"TLE_LINE2":"2 45677  53.0545 189.4968 0002033  80.4623 279.6595 15.06405131 84954","REV_AT_EPOCH":"8495","CENTER_NAME":"EARTH","SITE":"AFETR","TLE_LINE1":"1 45677U 20035W   21343.65431269  .00000471  00000-0  50537-4 0  9994","PERIOD":"95.592","EPOCH":"2021-12-09T15:42:12.616416","EPHEMERIS_TYPE":"0","ELEMENT_SET_NO":"999","GP_ID":"191397532","CLASSIFICATION_TYPE":"U","BSTAR":"0.00005053700000","OBJECT_ID":"2020-035W","LAUNCH_DATE":"2020-06-04","TIME_SYSTEM":"UTC","MEAN_MOTION_DOT":"0.00000471","OBJECT_TYPE":"PAYLOAD","MEAN_ANOMALY":"279.6595","PERIAPSIS":"545.790","APOAPSIS":"548.606","INCLINATION":"53.0545","OBJECT_NAME":"STARLINK-1392","REF_FRAME":"TEME","MEAN_ELEMENT_THEORY":"SGP4","SEMIMAJOR_AXIS":"6925.333","FILE":"3236488","NORAD_CAT_ID":"45677","RA_OF_ASC_NODE":"189.4968","MEAN_MOTION_DDOT":"0.0000000000000","COUNTRY_CODE":"US","MEAN_MOTION":"15.06405131","RCS_SIZE":"LARGE"},{"TIME_SYSTEM":"UTC","LAUNCH_DATE":"2020-06-04","OBJECT_ID":"2020-035X","MEAN_MOTION_DOT":"-0.00001299","BSTAR":"-0.00006829400000","CLASSIFICATION_TYPE":"U","GP_ID":"191397283","ELEMENT_SET_NO":"999","EPOCH":"2021-12-09T17:08:29.541984","PERIOD":"95.593","EPHEMERIS_TYPE":"0","ARG_OF_PERICENTER":"82.0446","ECCENTRICITY":"0.00023370","SITE":"AFETR","TLE_LINE1":"1 45678U 20035X   21343.71423081 -.00001299  00000-0 -68294-4 0  9995","TLE_LINE2":"2 45678  53.0528 179.2163 0002337  82.0446 278.0808 15.06387630 85086","CENTER_NAME":"EARTH","REV_AT_EPOCH":"8508","DECAY_DATE":null,"COUNTRY_CODE":"US","MEAN_MOTION":"15.06387630","RCS_SIZE":"LARGE","FILE":"3236488","NORAD_CAT_ID":"45678","MEAN_MOTION_DDOT":"0.0000000000000","RA_OF_ASC_NODE":"179.2163","REF_FRAME":"TEME","SEMIMAJOR_AXIS":"6925.386","MEAN_ELEMENT_THEORY":"SGP4","MEAN_ANOMALY":"278.0808","OBJECT_TYPE":"PAYLOAD","INCLINATION":"53.0528","OBJECT_NAME":"STARLINK-1393","APOAPSIS":"548.870","PERIAPSIS":"545.633"},{"TIME_SYSTEM":"UTC","LAUNCH_DATE":"2020-06-04","OBJECT_ID":"2020-035Y","MEAN_MOTION_DOT":"0.00000617","CLASSIFICATION_TYPE":"U","BSTAR":"0.00006036800000","ELEMENT_SET_NO":"999","GP_ID":"191396031","PERIOD":"95.592","EPOCH":"2021-12-09T15:38:14.895456","EPHEMERIS_TYPE":"0","ARG_OF_PERICENTER":"87.4131","ECCENTRICITY":"0.00022970","REV_AT_EPOCH":"8509","TLE_LINE2":"2 45679  53.0541 179.5049 0002297  87.4131 272.7121 15.06401962 85098","CENTER_NAME":"EARTH","SITE":"AFETR","TLE_LINE1":"1 45679U 20035Y   21343.65156129  .00000617  00000-0  60368-4 0  9990","DECAY_DATE":null,"COUNTRY_CODE":"US","MEAN_MOTION":"15.06401962","RCS_SIZE":"LARGE","NORAD_CAT_ID":"45679","FILE":"3236488","RA_OF_ASC_NODE":"179.5049","MEAN_MOTION_DDOT":"0.0000000000000","REF_FRAME":"TEME","SEMIMAJOR_AXIS":"6925.343","MEAN_ELEMENT_THEORY":"SGP4","OBJECT_TYPE":"PAYLOAD","MEAN_ANOMALY":"272.7121","OBJECT_NAME":"STARLINK-1394","INCLINATION":"53.0541","PERIAPSIS":"545.617","APOAPSIS":"548.798"}];
